[{"OBJECT_NAME":"ONEWEB-0142","OBJECT_ID":"2020-100AG","EPOCH":"2026-02-05T22:50:50.085312","MEAN_MOTION":13.12440315,"ECCENTRICITY":0.0002172,"INCLINATION":87.8954,"RA_OF_ASC_NODE":16.7178,"ARG_OF_PERICENTER":91.5963,"MEAN_ANOMALY":268.5414,"EPHEMERIS_TYPE":0,"CLASSIFICATION_TYPE":"U","NORAD_CAT_ID":47288,"ELEMENT_SET_NO":999,"REV_AT_EPOCH":24745,"BSTAR":-0.00042972,"MEAN_MOTION_DOT":-1.42e-6,"MEAN_MOTION_DDOT":0},{"OBJECT_NAME":"ONEWEB-0143","OBJECT_ID":"2020-100AH","EPOCH":"2026-02-05T23:05:15.124704","MEAN_MOTION":13.12444075,"ECCENTRICITY":0.000182,"INCLINATION":87.8957,"RA_OF_ASC_NODE":16.7117,"ARG_OF_PERICENTER":84.1306,"MEAN_ANOMALY":276.0029,"EPHEMERIS_TYPE":0,"CLASSIFICATION_TYPE":"U","NORAD_CAT_ID":47289,"ELEMENT_SET_NO":999,"REV_AT_EPOCH":24743,"BSTAR":-0.0012764,"MEAN_MOTION_DOT":-4.46e-6,"MEAN_MOTION_DDOT":0},{"OBJECT_NAME":"ONEWEB-0144","OBJECT_ID":"2020-100AJ","EPOCH":"2026-02-05T22:23:48.008256","MEAN_MOTION":13.12442321,"ECCENTRICITY":0.0001912,"INCLINATION":87.8959,"RA_OF_ASC_NODE":16.6867,"ARG_OF_PERICENTER":95.9167,"MEAN_ANOMALY":264.2179,"EPHEMERIS_TYPE":0,"CLASSIFICATION_TYPE":"U","NORAD_CAT_ID":47290,"ELEMENT_SET_NO":999,"REV_AT_EPOCH":24735,"BSTAR":0.0010933,"MEAN_MOTION_DOT":4.06e-6,"MEAN_MOTION_DDOT":0},{"OBJECT_NAME":"ONEWEB-0145","OBJECT_ID":"2020-100AK","EPOCH":"2026-02-05T23:32:06.135648","MEAN_MOTION":13.12443647,"ECCENTRICITY":0.0001838,"INCLINATION":87.8951,"RA_OF_ASC_NODE":16.7164,"ARG_OF_PERICENTER":87.383,"MEAN_ANOMALY":272.7508,"EPHEMERIS_TYPE":0,"CLASSIFICATION_TYPE":"U","NORAD_CAT_ID":47291,"ELEMENT_SET_NO":999,"REV_AT_EPOCH":24755,"BSTAR":-0.00040459,"MEAN_MOTION_DOT":-1.33e-6,"MEAN_MOTION_DDOT":0},{"OBJECT_NAME":"ONEWEB-0146","OBJECT_ID":"2020-100AL","EPOCH":"2026-02-05T23:27:13.184352","MEAN_MOTION":13.12444425,"ECCENTRICITY":0.0001669,"INCLINATION":87.895,"RA_OF_ASC_NODE":16.7019,"ARG_OF_PERICENTER":75.0402,"MEAN_ANOMALY":285.0911,"EPHEMERIS_TYPE":0,"CLASSIFICATION_TYPE":"U","NORAD_CAT_ID":47292,"ELEMENT_SET_NO":999,"REV_AT_EPOCH":24746,"BSTAR":-0.00080582,"MEAN_MOTION_DOT":-2.77e-6,"MEAN_MOTION_DDOT":0},{"OBJECT_NAME":"ONEWEB-0147","OBJECT_ID":"2020-100AM","EPOCH":"2026-02-05T22:38:26.101824","MEAN_MOTION":13.12441417,"ECCENTRICITY":0.0001546,"INCLINATION":87.8956,"RA_OF_ASC_NODE":16.6883,"ARG_OF_PERICENTER":89.9155,"MEAN_ANOMALY":270.2151,"EPHEMERIS_TYPE":0,"CLASSIFICATION_TYPE":"U","NORAD_CAT_ID":47293,"ELEMENT_SET_NO":999,"REV_AT_EPOCH":24735,"BSTAR":0.000206,"MEAN_MOTION_DOT":8.7e-7,"MEAN_MOTION_DDOT":0},{"OBJECT_NAME":"ONEWEB-0115","OBJECT_ID":"2021-025A","EPOCH":"2026-02-06T07:15:45.056448","MEAN_MOTION":13.13469886,"ECCENTRICITY":0.00017405,"INCLINATION":87.9037,"RA_OF_ASC_NODE":346.232,"ARG_OF_PERICENTER":76.9382,"MEAN_ANOMALY":283.1942,"EPHEMERIS_TYPE":0,"CLASSIFICATION_TYPE":"U","NORAD_CAT_ID":48042,"ELEMENT_SET_NO":999,"REV_AT_EPOCH":23641,"BSTAR":0.0012587614,"MEAN_MOTION_DOT":4.72e-6,"MEAN_MOTION_DDOT":0},{"OBJECT_NAME":"ONEWEB-0152","OBJECT_ID":"2021-025B","EPOCH":"2026-02-06T05:45:34.246080","MEAN_MOTION":13.13470293,"ECCENTRICITY":0.00016912,"INCLINATION":87.9035,"RA_OF_ASC_NODE":346.248,"ARG_OF_PERICENTER":76.1164,"MEAN_ANOMALY":284.0154,"EPHEMERIS_TYPE":0,"CLASSIFICATION_TYPE":"U","NORAD_CAT_ID":48043,"ELEMENT_SET_NO":999,"REV_AT_EPOCH":23636,"BSTAR":0.0004728544,"MEAN_MOTION_DOT":1.85e-6,"MEAN_MOTION_DDOT":0},{"OBJECT_NAME":"ONEWEB-0153","OBJECT_ID":"2021-025C","EPOCH":"2026-02-05T21:55:05.733984","MEAN_MOTION":13.13469432,"ECCENTRICITY":0.0001832,"INCLINATION":87.9031,"RA_OF_ASC_NODE":346.319,"ARG_OF_PERICENTER":82.2287,"MEAN_ANOMALY":277.905,"EPHEMERIS_TYPE":0,"CLASSIFICATION_TYPE":"U","NORAD_CAT_ID":48044,"ELEMENT_SET_NO":999,"REV_AT_EPOCH":23631,"BSTAR":0.00056636,"MEAN_MOTION_DOT":2.2e-6,"MEAN_MOTION_DDOT":0},{"OBJECT_NAME":"ONEWEB-0154","OBJECT_ID":"2021-025D","EPOCH":"2026-02-05T21:50:12.374880","MEAN_MOTION":13.13471788,"ECCENTRICITY":0.0001723,"INCLINATION":87.9029,"RA_OF_ASC_NODE":346.3169,"ARG_OF_PERICENTER":81.0721,"MEAN_ANOMALY":279.0604,"EPHEMERIS_TYPE":0,"CLASSIFICATION_TYPE":"U","NORAD_CAT_ID":48045,"ELEMENT_SET_NO":999,"REV_AT_EPOCH":23627,"BSTAR":0.0006388,"MEAN_MOTION_DOT":2.46e-6,"MEAN_MOTION_DDOT":0},{"OBJECT_NAME":"ONEWEB-0116","OBJECT_ID":"2021-025E","EPOCH":"2026-02-05T20:56:34.966752","MEAN_MOTION":13.13469808,"ECCENTRICITY":0.0001706,"INCLINATION":87.9039,"RA_OF_ASC_NODE":346.3103,"ARG_OF_PERICENTER":75.5782,"MEAN_ANOMALY":284.5536,"EPHEMERIS_TYPE":0,"CLASSIFICATION_TYPE":"U","NORAD_CAT_ID":48046,"ELEMENT_SET_NO":999,"REV_AT_EPOCH":23641,"BSTAR":-0.00055911,"MEAN_MOTION_DOT":-1.91e-6,"MEAN_MOTION_DDOT":0},{"OBJECT_NAME":"ONEWEB-0150","OBJECT_ID":"2021-025F","EPOCH":"2026-02-06T07:20:38.112288","MEAN_MOTION":13.13469896,"ECCENTRICITY":0.0001986,"INCLINATION":87.9038,"RA_OF_ASC_NODE":346.2209,"ARG_OF_PERICENTER":79.1319,"MEAN_ANOMALY":281.0034,"EPHEMERIS_TYPE":0,"CLASSIFICATION_TYPE":"U","NORAD_CAT_ID":48047,"ELEMENT_SET_NO":999,"REV_AT_EPOCH":23636,"BSTAR":0.0012776311,"MEAN_MOTION_DOT":4.79e-6,"MEAN_MOTION_DDOT":0},{"OBJECT_NAME":"ONEWEB-0107","OBJECT_ID":"2021-025G","EPOCH":"2026-02-05T20:24:54.117504","MEAN_MOTION":13.13470888,"ECCENTRICITY":0.00019049,"INCLINATION":87.9036,"RA_OF_ASC_NODE":346.3073,"ARG_OF_PERICENTER":86.8404,"MEAN_ANOMALY":273.2944,"EPHEMERIS_TYPE":0,"CLASSIFICATION_TYPE":"U","NORAD_CAT_ID":48048,"ELEMENT_SET_NO":999,"REV_AT_EPOCH":23628,"BSTAR":0.00069107886,"MEAN_MOTION_DOT":2.65e-6,"MEAN_MOTION_DDOT":0},{"OBJECT_NAME":"ONEWEB-0101","OBJECT_ID":"2021-025H","EPOCH":"2026-02-06T06:29:26.373696","MEAN_MOTION":13.13470372,"ECCENTRICITY":0.00017339,"INCLINATION":87.9028,"RA_OF_ASC_NODE":346.2531,"ARG_OF_PERICENTER":84.7866,"MEAN_ANOMALY":275.3461,"EPHEMERIS_TYPE":0,"CLASSIFICATION_TYPE":"U","NORAD_CAT_ID":48049,"ELEMENT_SET_NO":999,"REV_AT_EPOCH":23631,"BSTAR":-0.00052833642,"MEAN_MOTION_DOT":-1.8e-6,"MEAN_MOTION_DDOT":0},{"OBJECT_NAME":"ONEWEB-0113","OBJECT_ID":"2021-025J","EPOCH":"2026-02-05T21:13:23.556288","MEAN_MOTION":13.13972669,"ECCENTRICITY":0.0001677,"INCLINATION":87.9037,"RA_OF_ASC_NODE":346.2517,"ARG_OF_PERICENTER":72.8837,"MEAN_ANOMALY":287.2475,"EPHEMERIS_TYPE":0,"CLASSIFICATION_TYPE":"U","NORAD_CAT_ID":48050,"ELEMENT_SET_NO":999,"REV_AT_EPOCH":23636,"BSTAR":-0.0008887,"MEAN_MOTION_DOT":-3.14e-6,"MEAN_MOTION_DDOT":0},{"OBJECT_NAME":"ONEWEB-0112","OBJECT_ID":"2021-025K","EPOCH":"2026-02-05T20:32:12.141312","MEAN_MOTION":13.1347091,"ECCENTRICITY":0.00017298,"INCLINATION":87.9037,"RA_OF_ASC_NODE":346.3036,"ARG_OF_PERICENTER":89.295,"MEAN_ANOMALY":270.8377,"EPHEMERIS_TYPE":0,"CLASSIFICATION_TYPE":"U","NORAD_CAT_ID":48051,"ELEMENT_SET_NO":999,"REV_AT_EPOCH":23635,"BSTAR":0.00068179409,"MEAN_MOTION_DOT":2.62e-6,"MEAN_MOTION_DDOT":0},{"OBJECT_NAME":"ONEWEB-0156","OBJECT_ID":"2021-025L","EPOCH":"2026-02-06T05:52:52.034016","MEAN_MOTION":13.13469191,"ECCENTRICITY":0.00019143,"INCLINATION":87.9038,"RA_OF_ASC_NODE":346.2376,"ARG_OF_PERICENTER":82.7327,"MEAN_ANOMALY":277.402,"EPHEMERIS_TYPE":0,"CLASSIFICATION_TYPE":"U","NORAD_CAT_ID":48052,"ELEMENT_SET_NO":999,"REV_AT_EPOCH":23638,"BSTAR":0.00012389027,"MEAN_MOTION_DOT":5.8e-7,"MEAN_MOTION_DDOT":0}]
