ONEWEB-0142             
1 47288U 20100AG  26036.95196858 -.00000142  00000+0 -42972-3 0  9995
2 47288  87.8954  16.7178 0002172  91.5963 268.5414 13.12440315247453
ONEWEB-0143             
1 47289U 20100AH  26036.96198061 -.00000446  00000+0 -12764-2 0  9997
2 47289  87.8957  16.7117 0001820  84.1306 276.0029 13.12444075247439
ONEWEB-0144             
1 47290U 20100AJ  26036.93319454  .00000406  00000+0  10933-2 0  9997
2 47290  87.8959  16.6867 0001912  95.9167 264.2179 13.12442321247359
ONEWEB-0145             
1 47291U 20100AK  26036.98062657 -.00000133  00000+0 -40459-3 0  9999
2 47291  87.8951  16.7164 0001838  87.3830 272.7508 13.12443647247556
ONEWEB-0146             
1 47292U 20100AL  26036.97723593 -.00000277  00000+0 -80582-3 0  9992
2 47292  87.8950  16.7019 0001669  75.0402 285.0911 13.12444425247466
ONEWEB-0147             
1 47293U 20100AM  26036.94335766  .00000087  00000+0  20600-3 0  9993
2 47293  87.8956  16.6883 0001546  89.9155 270.2151 13.12441417247352
ONEWEB-0115             
1 48042U 21025A   26037.30260482  .00000472  00000+0  12588-2 0  9999
2 48042  87.9037 346.2320 0001740  76.9382 283.1942 13.13469886236415
ONEWEB-0152             
1 48043U 21025B   26037.23997970  .00000185  00000+0  47285-3 0  9995
2 48043  87.9035 346.2480 0001691  76.1164 284.0154 13.13470293236369
ONEWEB-0153             
1 48044U 21025C   26036.91326081  .00000220  00000+0  56636-3 0  9999
2 48044  87.9031 346.3190 0001832  82.2287 277.9050 13.13469432236310
ONEWEB-0154             
1 48045U 21025D   26036.90986545  .00000246  00000+0  63880-3 0  9993
2 48045  87.9029 346.3169 0001723  81.0721 279.0604 13.13471788236273
ONEWEB-0116             
1 48046U 21025E   26036.87262693 -.00000191  00000+0 -55911-3 0  9998
2 48046  87.9039 346.3103 0001706  75.5782 284.5536 13.13469808236410
ONEWEB-0150             
1 48047U 21025F   26037.30599667  .00000479  00000+0  12776-2 0  9990
2 48047  87.9038 346.2209 0001986  79.1319 281.0034 13.13469896236368
ONEWEB-0107             
1 48048U 21025G   26036.85062636  .00000265  00000+0  69108-3 0  9996
2 48048  87.9036 346.3073 0001904  86.8404 273.2944 13.13470888236284
ONEWEB-0101             
1 48049U 21025H   26037.27044414 -.00000180  00000+0 -52834-3 0  9994
2 48049  87.9028 346.2531 0001733  84.7866 275.3461 13.13470372236312
ONEWEB-0113             
1 48050U 21025J   26036.88430042 -.00000314  00000+0 -88870-3 0  9996
2 48050  87.9037 346.2517 0001677  72.8837 287.2475 13.13972669236369
ONEWEB-0112             
1 48051U 21025K   26036.85569608  .00000262  00000+0  68179-3 0  9995
2 48051  87.9037 346.3036 0001729  89.2950 270.8377 13.13470910236353
ONEWEB-0156             
1 48052U 21025L   26037.24504669  .00000058  00000+0  12389-3 0  9991
2 48052  87.9038 346.2376 0001914  82.7327 277.4020 13.13469191236383
